GLOBALSTAR M067         
1 32263U 07048A   25215.13728044 -.00000064  00000+0  24991-3 0  9997
2 32263  51.9712 258.5546 0001191  97.0909 311.2166 12.40674869815555
GLOBALSTAR M070         
1 32264U 07048B   25214.53892240 -.00000103  00000+0  56981-5 0  9991
2 32264  51.9777 347.2974 0000699 116.1663 322.7766 12.62320472819526
GLOBALSTAR M068         
1 32266U 07048D   25215.17539918 -.00000095  00000+0  51123-4 0  9996
2 32266  51.9873 159.0201 0000619 252.8897 213.5948 12.62826443823787
GLOBALSTAR M079         
1 37188U 10054A   25214.83820687 -.00000094  00000+0  53059-4 0  9992
2 37188  52.0062 357.7731 0000956  83.7312  77.3106 12.62265606683020
GLOBALSTAR M074         
1 37189U 10054B   25214.85875392 -.00000101  00000+0  14692-4 0  9997
2 37189  52.0040 357.0278 0000936 104.0420  28.8288 12.62266761683026
GLOBALSTAR M076         
1 37190U 10054C   25214.72656149 -.00000090  00000+0  78900-4 0  9991
2 37190  52.0052 357.6040 0001065  93.9150  38.6808 12.62264233683012
GLOBALSTAR M077         
1 37191U 10054D   25214.55553712 -.00000131  00000+0 -15159-3 0  9998
2 37191  52.0094 314.9943 0000672 115.5313  21.2316 12.62322284683004
